{"type": "FeatureCollection", "features": [{"type": "Feature", "properties": {"norad_id": 28054, "name": "DMSP 5D-3 F16 (USA 172)", "group": "weather", "lat": 51.6597479592534, "lon": 1.57357629430609, "alt_km": 841.6802020919204, "timestamp": "2025-12-21T14:40:47.552830+00:00", "meta": {"OBJECT_NAME": "DMSP 5D-3 F16 (USA 172)", "OBJECT_ID": "2003-048A", "EPOCH": "2025-12-21T06:45:39.999744", "MEAN_MOTION": 14.14427053, "ECCENTRICITY": 0.00062806, "INCLINATION": 99.0038, "RA_OF_ASC_NODE": 12.8057, "ARG_OF_PERICENTER": 293.6384, "MEAN_ANOMALY": 239.7948, "EPHEMERIS_TYPE": 0, "CLASSIFICATION_TYPE": "U", "NORAD_CAT_ID": 28054, "ELEMENT_SET_NO": 999, "REV_AT_EPOCH": 14433, "BSTAR": 7.1148517e-05, "MEAN_MOTION_DOT": 9.1e-07, "MEAN_MOTION_DDOT": 0}, "tle": {"line1": "1 28054U 03048A   25355.28171296  .00000091  00000+0  71149-4 0  9995", "line2": "2 28054  99.0038  12.8057 0006280 293.6384 239.7948 14.14427053144332"}}, "geometry": {"type": "Point", "coordinates": [1.57357629430609, 51.6597479592534]}}, {"type": "Feature", "properties": {"norad_id": 28912, "name": "METEOSAT-9 (MSG-2)", "group": "weather", "lat": -7.780405069371003, "lon": -4.233501976845726, "alt_km": 35369.27538157839, "timestamp": "2025-12-21T14:40:47.552880+00:00", "meta": {"OBJECT_NAME": "METEOSAT-9 (MSG-2)", "OBJECT_ID": "2005-049B", "EPOCH": "2025-12-20T18:34:58.766592", "MEAN_MOTION": 1.00265537, "ECCENTRICITY": 0.01042854, "INCLINATION": 8.9429, "RA_OF_ASC_NODE": 55.8777, "ARG_OF_PERICENTER": 282.8799, "MEAN_ANOMALY": 74.1046, "EPHEMERIS_TYPE": 0, "CLASSIFICATION_TYPE": "U", "NORAD_CAT_ID": 28912, "ELEMENT_SET_NO": 999, "REV_AT_EPOCH": 520, "BSTAR": 0, "MEAN_MOTION_DOT": 1.08e-06, "MEAN_MOTION_DDOT": 0}, "tle": {"line1": "1 28912U 05049B   25354.77429128  .00000108  00000+0  00000+0 0  9996", "line2": "2 28912   8.9429  55.8777 0104285 282.8799  74.1046  1.00265537  5208"}}, "geometry": {"type": "Point", "coordinates": [-4.233501976845726, -7.780405069371003]}}, {"type": "Feature", "properties": {"norad_id": 29522, "name": "DMSP 5D-3 F17 (USA 191)", "group": "weather", "lat": 8.37238396459504, "lon": -0.48113885076460955, "alt_km": 851.2750054340304, "timestamp": "2025-12-21T14:40:47.552898+00:00", "meta": {"OBJECT_NAME": "DMSP 5D-3 F17 (USA 191)", "OBJECT_ID": "2006-050A", "EPOCH": "2025-12-21T06:09:14.715648", "MEAN_MOTION": 14.14923185, "ECCENTRICITY": 0.00097606, "INCLINATION": 98.739, "RA_OF_ASC_NODE": 0.4682, "ARG_OF_PERICENTER": 199.2316, "MEAN_ANOMALY": 160.849, "EPHEMERIS_TYPE": 0, "CLASSIFICATION_TYPE": "U", "NORAD_CAT_ID": 29522, "ELEMENT_SET_NO": 999, "REV_AT_EPOCH": 98725, "BSTAR": 9.0542162e-05, "MEAN_MOTION_DOT": 1.32e-06, "MEAN_MOTION_DDOT": 0}, "tle": {"line1": "1 29522U 06050A   25355.25642032  .00000132  00000+0  90542-4 0  9994", "line2": "2 29522  98.7390   0.4682 0009760 199.2316 160.8490 14.14923185987258"}}, "geometry": {"type": "Point", "coordinates": [-0.48113885076460955, 8.37238396459504]}}, {"type": "Feature", "properties": {"norad_id": 32958, "name": "FENGYUN 3A", "group": "weather", "lat": -48.343286142718, "lon": 105.07488122255529, "alt_km": 830.4612803214641, "timestamp": "2025-12-21T14:40:47.552912+00:00", "meta": {"OBJECT_NAME": "FENGYUN 3A", "OBJECT_ID": "2008-026A", "EPOCH": "2025-12-21T06:50:12.752448", "MEAN_MOTION": 14.19517069, "ECCENTRICITY": 0.00076551, "INCLINATION": 98.6709, "RA_OF_ASC_NODE": 294.632, "ARG_OF_PERICENTER": 282.8798, "MEAN_ANOMALY": 77.1523, "EPHEMERIS_TYPE": 0, "CLASSIFICATION_TYPE": "U", "NORAD_CAT_ID": 32958, "ELEMENT_SET_NO": 999, "REV_AT_EPOCH": 91016, "BSTAR": 5.6974136e-05, "MEAN_MOTION_DOT": 7.7e-07, "MEAN_MOTION_DDOT": 0}, "tle": {"line1": "1 32958U 08026A   25355.28486982  .00000077  00000+0  56974-4 0  9998", "line2": "2 32958  98.6709 294.6320 0007655 282.8798  77.1523 14.19517069910166"}}, "geometry": {"type": "Point", "coordinates": [105.07488122255529, -48.343286142718]}}, {"type": "Feature", "properties": {"norad_id": 35491, "name": "GOES 14", "group": "weather", "lat": 1.1464305431099653, "lon": -164.73195238804834, "alt_km": 35834.42224454926, "timestamp": "2025-12-21T14:40:47.552933+00:00", "meta": {"OBJECT_NAME": "GOES 14", "OBJECT_ID": "2009-033A", "EPOCH": "2025-12-21T05:48:11.867328", "MEAN_MOTION": 1.00096931, "ECCENTRICITY": 5.232e-05, "INCLINATION": 1.2245, "RA_OF_ASC_NODE": 85.3195, "ARG_OF_PERICENTER": 184.5201, "MEAN_ANOMALY": 152.1556, "EPHEMERIS_TYPE": 0, "CLASSIFICATION_TYPE": "U", "NORAD_CAT_ID": 35491, "ELEMENT_SET_NO": 999, "REV_AT_EPOCH": 480, "BSTAR": 0, "MEAN_MOTION_DOT": 2.3e-07, "MEAN_MOTION_DDOT": 0}, "tle": {"line1": "1 35491U 09033A   25355.24180402  .00000023  00000+0  00000+0 0  9991", "line2": "2 35491   1.2245  85.3195 0000523 184.5201 152.1556  1.00096931  4806"}}, "geometry": {"type": "Point", "coordinates": [-164.73195238804834, 1.1464305431099653]}}, {"type": "Feature", "properties": {"norad_id": 35951, "name": "DMSP 5D-3 F18 (USA 210)", "group": "weather", "lat": -50.50664170873146, "lon": 141.02787237379854, "alt_km": 858.3104075989486, "timestamp": "2025-12-21T14:40:47.552946+00:00", "meta": {"OBJECT_NAME": "DMSP 5D-3 F18 (USA 210)", "OBJECT_ID": "2009-057A", "EPOCH": "2025-12-21T05:06:13.019616", "MEAN_MOTION": 14.1477454, "ECCENTRICITY": 0.0011844, "INCLINATION": 98.8843, "RA_OF_ASC_NODE": 331.5714, "ARG_OF_PERICENTER": 40.4388, "MEAN_ANOMALY": 319.7663, "EPHEMERIS_TYPE": 0, "CLASSIFICATION_TYPE": "U", "NORAD_CAT_ID": 35951, "ELEMENT_SET_NO": 999, "REV_AT_EPOCH": 83442, "BSTAR": 0.00014810003, "MEAN_MOTION_DOT": 2.41e-06, "MEAN_MOTION_DDOT": 0}, "tle": {"line1": "1 35951U 09057A   25355.21265069  .00000241  00000+0  14810-3 0  9998", "line2": "2 35951  98.8843 331.5714 0011844  40.4388 319.7663 14.14774540834427"}}, "geometry": {"type": "Point", "coordinates": [141.02787237379854, -50.50664170873146]}}, {"type": "Feature", "properties": {"norad_id": 36411, "name": "EWS-G2 (GOES 15)", "group": "weather", "lat": -0.7976416986382339, "lon": 12.04248383377497, "alt_km": 35793.61944666946, "timestamp": "2025-12-21T14:40:47.552959+00:00", "meta": {"OBJECT_NAME": "EWS-G2 (GOES 15)", "OBJECT_ID": "2010-008A", "EPOCH": "2025-12-21T04:55:49.163232", "MEAN_MOTION": 1.00270904, "ECCENTRICITY": 0.00054599, "INCLINATION": 0.8333, "RA_OF_ASC_NODE": 86.0841, "ARG_OF_PERICENTER": 177.6841, "MEAN_ANOMALY": 321.5773, "EPHEMERIS_TYPE": 0, "CLASSIFICATION_TYPE": "U", "NORAD_CAT_ID": 36411, "ELEMENT_SET_NO": 999, "REV_AT_EPOCH": 5785, "BSTAR": 0, "MEAN_MOTION_DOT": 6.1e-07, "MEAN_MOTION_DDOT": 0}, "tle": {"line1": "1 36411U 10008A   25355.20543013  .00000061  00000+0  00000+0 0  9997", "line2": "2 36411   0.8333  86.0841 0005459 177.6841 321.5773  1.00270904 57854"}}, "geometry": {"type": "Point", "coordinates": [12.04248383377497, -0.7976416986382339]}}, {"type": "Feature", "properties": {"norad_id": 36744, "name": "COMS 1", "group": "weather", "lat": 0.09286093390448237, "lon": 78.79997148735282, "alt_km": 35788.833320996455, "timestamp": "2025-12-21T14:40:47.552973+00:00", "meta": {"OBJECT_NAME": "COMS 1", "OBJECT_ID": "2010-032A", "EPOCH": "2025-12-20T17:15:48.580128", "MEAN_MOTION": 1.00272163, "ECCENTRICITY": 6.966e-05, "INCLINATION": 4.3584, "RA_OF_ASC_NODE": 77.9096, "ARG_OF_PERICENTER": 203.045, "MEAN_ANOMALY": 195.7243, "EPHEMERIS_TYPE": 0, "CLASSIFICATION_TYPE": "U", "NORAD_CAT_ID": 36744, "ELEMENT_SET_NO": 999, "REV_AT_EPOCH": 4930, "BSTAR": 0, "MEAN_MOTION_DOT": -3.24e-06, "MEAN_MOTION_DDOT": 0}, "tle": {"line1": "1 36744U 10032A   25354.71931227 -.00000324  00000+0  00000+0 0  9999", "line2": "2 36744   4.3584  77.9096 0000696 203.0450 195.7243  1.00272163 49302"}}, "geometry": {"type": "Point", "coordinates": [78.79997148735282, 0.09286093390448237]}}, {"type": "Feature", "properties": {"norad_id": 37214, "name": "FENGYUN 3B", "group": "weather", "lat": -16.284443365136916, "lon": -146.99951456758168, "alt_km": 859.0466155579279, "timestamp": "2025-12-21T14:40:47.552985+00:00", "meta": {"OBJECT_NAME": "FENGYUN 3B", "OBJECT_ID": "2010-059A", "EPOCH": "2025-12-21T07:15:58.154688", "MEAN_MOTION": 14.14791984, "ECCENTRICITY": 0.00216566, "INCLINATION": 98.9897, "RA_OF_ASC_NODE": 35.34, "ARG_OF_PERICENTER": 333.4353, "MEAN_ANOMALY": 90.6578, "EPHEMERIS_TYPE": 0, "CLASSIFICATION_TYPE": "U", "NORAD_CAT_ID": 37214, "ELEMENT_SET_NO": 999, "REV_AT_EPOCH": 78227, "BSTAR": 2.1984533e-05, "MEAN_MOTION_DOT": -3e-08, "MEAN_MOTION_DDOT": 0}, "tle": {"line1": "1 37214U 10059A   25355.30275642 -.00000003  00000+0  21985-4 0  9993", "line2": "2 37214  98.9897  35.3400 0021656 333.4353  90.6578 14.14791984782277"}}, "geometry": {"type": "Point", "coordinates": [-146.99951456758168, -16.284443365136916]}}, {"type": "Feature", "properties": {"norad_id": 37849, "name": "SUOMI NPP", "group": "weather", "lat": -7.928927583078104, "lon": 111.63998932001756, "alt_km": 830.7898093799022, "timestamp": "2025-12-21T14:40:47.552997+00:00", "meta": {"OBJECT_NAME": "SUOMI NPP", "OBJECT_ID": "2011-061A", "EPOCH": "2025-12-17T23:31:21.474624", "MEAN_MOTION": 14.19515682, "ECCENTRICITY": 0.00023932, "INCLINATION": 98.7779, "RA_OF_ASC_NODE": 289.2746, "ARG_OF_PERICENTER": 111.1248, "MEAN_ANOMALY": 249.0184, "EPHEMERIS_TYPE": 0, "CLASSIFICATION_TYPE": "U", "NORAD_CAT_ID": 37849, "ELEMENT_SET_NO": 999, "REV_AT_EPOCH": 73273, "BSTAR": 4.8615036e-05, "MEAN_MOTION_DOT": 5.8e-07, "MEAN_MOTION_DDOT": 0}, "tle": {"line1": "1 37849U 11061A   25351.98010966  .00000058  00000+0  48615-4 0  9995", "line2": "2 37849  98.7779 289.2746 0002393 111.1248 249.0184 14.19515682732735"}}, "geometry": {"type": "Point", "coordinates": [111.63998932001756, -7.928927583078104]}}]}